$$SOE
2460147.500000000, A.D. 2023-Jul-22 00:00:00.0000, 3.149711418330918E+08, -1.578366228892089E+08, -3.980377906839492E+07,
2460154.500000000, A.D. 2023-Jul-29 00:00:00.0000, 3.187459911178176E+08, -1.471006271590765E+08, -3.828505783852162E+07,
2460161.500000000, A.D. 2023-Aug-05 00:00:00.0000, 3.221694686188768E+08, -1.362024357742913E+08, -3.672413192183770E+07,
2460168.500000000, A.D. 2023-Aug-12 00:00:00.0000, 3.252334394706604E+08, -1.251522185095159E+08, -3.512222508623570E+07,
2460175.500000000, A.D. 2023-Aug-19 00:00:00.0000, 3.279299510382117E+08, -1.139605615179155E+08, -3.348063548278040E+07,
2460182.500000000, A.D. 2023-Aug-26 00:00:00.0000, 3.302512534192212E+08, -1.026384749073227E+08, -3.180073782460133E+07,
2460189.500000000, A.D. 2023-Sep-02 00:00:00.0000, 3.321898213291636E+08, -9.119739973781490E+07, -3.008398553195616E+07,
2460196.500000000, A.D. 2023-Sep-09 00:00:00.0000, 3.337383774296214E+08, -7.964921435740082E+07, -2.833191282997428E+07,
2460203.500000000, A.D. 2023-Sep-16 00:00:00.0000, 3.348899172840492E+08, -6.800623999360581E+07, -2.654613679747365E+07,
2460210.500000000, A.D. 2023-Sep-23 00:00:00.0000, 3.356377363686900E+08, -5.628124515860284E+07, -2.472835935888886E+07,
2460217.500000000, A.D. 2023-Sep-30 00:00:00.0000, 3.359754588116382E+08, -4.448744751026373E+07, -2.288036906729702E+07,
2460224.500000000, A.D. 2023-Oct-07 00:00:00.0000, 3.358970655182274E+08, -3.263851354445437E+07, -2.100404248234390E+07,
2460231.500000000, A.D. 2023-Oct-14 00:00:00.0000, 3.353969227136832E+08, -2.074855926298739E+07, -1.910134548209361E+07,
2460238.500000000, A.D. 2023-Oct-21 00:00:00.0000, 3.344698140958959E+08, -8.832150032485804E+06, -1.717433464345840E+07,
2460245.500000000, A.D. 2023-Oct-28 00:00:00.0000, 3.331109751212555E+08, 3.095702819847294E+06, -1.522515834253593E+07,
2460252.500000000, A.D. 2023-Nov-04 00:00:00.0000, 3.313161281023152E+08, 1.501954810367980E+07, -1.325605748740894E+07,
2460259.500000000, A.D. 2023-Nov-11 00:00:00.0000, 3.290815181999613E+08, 2.692350316283570E+07, -1.126936591067318E+07,
2460266.500000000, A.D. 2023-Nov-18 00:00:00.0000, 3.264039504090287E+08, 3.879126471961016E+07, -9.267510407088602E+06,
2460273.500000000, A.D. 2023-Nov-25 00:00:00.0000, 3.232808274626917E+08, 5.060612240292013E+07, -7.253010379676349E+06,
2460280.500000000, A.D. 2023-Dec-02 00:00:00.0000, 3.197101885080408E+08, 6.235097516321092E+07, -5.228477055136364E+06,
2460287.500000000, A.D. 2023-Dec-09 00:00:00.0000, 3.156907484255770E+08, 7.400835072556446E+07, -3.196612237238266E+06,
2460294.500000000, A.D. 2023-Dec-16 00:00:00.0000, 3.112219378436621E+08, 8.556042829449140E+07, -1.160206580226891E+06,
2460301.500000000, A.D. 2023-Dec-23 00:00:00.0000, 3.063039439208320E+08, 9.698906538413982E+07, 8.778626844456941E+05,
2460308.500000000, A.D. 2023-Dec-30 00:00:00.0000, 3.009377502405424E+08, 1.082758299995769E+08, 2.914634818627238E+06,
2460315.500000000, A.D. 2024-Jan-06 00:00:00.0000, 2.951251737111382E+08, 1.194020359694107E+08, 4.947069455894150E+06,
2460322.500000000, A.D. 2024-Jan-13 00:00:00.0000, 2.888689012780133E+08, 1.303487797458357E+08, 6.972050886496298E+06,
2460329.500000000, A.D. 2024-Jan-20 00:00:00.0000, 2.821725272578666E+08, 1.410969818455931E+08, 8.986392921807192E+06,
2460336.500000000, A.D. 2024-Jan-27 00:00:00.0000, 2.750405888221511E+08, 1.516274336404949E+08, 1.098684460679439E+07,
2460343.500000000, A.D. 2024-Feb-03 00:00:00.0000, 2.674785987335131E+08, 1.619208485614354E+08, 1.297009676583514E+07,
2460350.500000000, A.D. 2024-Feb-10 00:00:00.0000, 2.594930751211326E+08, 1.719579173860202E+08, 1.493278934924944E+07,
2460357.500000000, A.D. 2024-Feb-17 00:00:00.0000, 2.510915679228162E+08, 1.817193675225286E+08, 1.687151957702574E+07,
2460364.500000000, A.D. 2024-Feb-24 00:00:00.0000, 2.422826815060674E+08, 1.911860261483107E+08, 1.878285087703197E+07,
2460371.500000000, A.D. 2024-Mar-02 00:00:00.0000, 2.330760929686372E+08, 2.003388869474997E+08, 2.066332260153778E+07,
2460378.500000000, A.D. 2024-Mar-09 00:00:00.0000, 2.234825657327012E+08, 2.091591800936100E+08, 2.250946048229541E+07,
2460385.500000000, A.D. 2024-Mar-16 00:00:00.0000, 2.135139583195201E+08, 2.176284453109959E+08, 2.431778777030902E+07,
2460392.500000000, A.D. 2024-Mar-23 00:00:00.0000, 2.031832277178135E+08, 2.257286086806698E+08, 2.608483711272921E+07,
2460399.500000000, A.D. 2024-Mar-30 00:00:00.0000, 1.925044246432952E+08, 2.334420626399252E+08, 2.780716330767450E+07,
2460406.500000000, A.D. 2024-Apr-06 00:00:00.0000, 1.814926805334974E+08, 2.407517452319983E+08, 2.948135656601669E+07,
2460413.500000000, A.D. 2024-Apr-13 00:00:00.0000, 1.701641894969177E+08, 2.476412187979608E+08, 3.110405593745555E+07,
2460420.500000000, A.D. 2024-Apr-20 00:00:00.0000, 1.585361839917411E+08, 2.540947500653548E+08, 3.267196310527025E+07,
2460427.500000000, A.D. 2024-Apr-27 00:00:00.0000, 1.466269025193924E+08, 2.600973903012509E+08, 3.418185653002410E+07,
2460434.500000000, A.D. 2024-May-04 00:00:00.0000, 1.344555493191277E+08, 2.656350540173184E+08, 3.563060575386208E+07,
2460441.500000000, A.D. 2024-May-11 00:00:00.0000, 1.220422463033793E+08, 2.706945952865584E+08, 3.701518570343763E+07,
2460448.500000000, A.D. 2024-May-18 00:00:00.0000, 1.094079774266353E+08, 2.752638808389757E+08, 3.833269084688284E+07,
2460455.500000000, A.D. 2024-May-25 00:00:00.0000, 9.657452573867159E+07, 2.793318590734358E+08, 3.958034905798145E+07,
2460462.500000000, A.D. 2024-Jun-01 00:00:00.0000, 8.356440352602035E+07, 2.828886240846872E+08, 4.075553502938859E+07,
2460469.500000000, A.D. 2024-Jun-08 00:00:00.0000, 7.040077624625178E+07, 2.859254738646743E+08, 4.185578305928352E+07,
2460476.500000000, A.D. 2024-Jun-15 00:00:00.0000, 5.710738121735149E+07, 2.884349624516821E+08, 4.287879906803557E+07,
2460483.500000000, A.D. 2024-Jun-22 00:00:00.0000, 4.370844071908246E+07, 2.904109465028765E+08, 4.382247188760073E+07,
2460490.500000000, A.D. 2024-Jun-29 00:00:00.0000, 3.022856813751334E+07, 2.918486238507520E+08, 4.468488373406905E+07,
2460497.500000000, A.D. 2024-Jul-06 00:00:00.0000, 1.669267062330075E+07, 2.927445610693662E+08, 4.546431930344559E+07,
2460504.500000000, A.D. 2024-Jul-13 00:00:00.0000, 3.125851131707700E+06, 2.930967125112190E+08, 4.615927344860230E+07,
2460511.500000000, A.D. 2024-Jul-20 00:00:00.0000, -1.044669115466821E+07, 2.929044316958000E+08, 4.676845762779193E+07,
2460518.500000000, A.D. 2024-Jul-27 00:00:00.0000, -2.399976166896554E+07, 2.921684739319648E+08, 4.729080503402446E+07,
2460525.500000000, A.D. 2024-Aug-03 00:00:00.0000, -3.750827128187599E+07, 2.908909897729673E+08, 4.772547429672460E+07,
2460532.500000000, A.D. 2024-Aug-10 00:00:00.0000, -5.094733593066591E+07, 2.890755094067641E+08, 4.807185170845275E+07,
2460539.500000000, A.D. 2024-Aug-17 00:00:00.0000, -6.429237402897178E+07, 2.867269182399201E+08, 4.832955196440156E+07,
2460546.500000000, A.D. 2024-Aug-24 00:00:00.0000, -7.751920069509839E+07, 2.838514240122131E+08, 4.849841742231101E+07,
2460553.500000000, A.D. 2024-Aug-31 00:00:00.0000, -9.060411781055561E+07, 2.804565158526164E+08, 4.857851590010200E+07,
2460560.500000000, A.D. 2024-Sep-07 00:00:00.0000, -1.035239987483408E+08, 2.765509159756392E+08, 4.857013704062784E+07,
2460567.500000000, A.D. 2024-Sep-14 00:00:00.0000, -1.162563669832265E+08, 2.721445256747044E+08, 4.847378738830021E+07,
2460574.500000000, A.D. 2024-Sep-21 00:00:00.0000, -1.287794700113212E+08, 2.672483667639995E+08, 4.829018448582810E+07,
2460581.500000000, A.D. 2024-Sep-28 00:00:00.0000, -1.410723485608685E+08, 2.618745160290743E+08, 4.802024987156774E+07,
2460588.500000000, A.D. 2024-Oct-05 00:00:00.0000, -1.531148970357643E+08, 2.560360334928240E+08, 4.766510074904564E+07,
2460595.500000000, A.D. 2024-Oct-12 00:00:00.0000, -1.648879152950681E+08, 2.497468883212070E+08, 4.722604072768664E+07,
2460602.500000000, A.D. 2024-Oct-19 00:00:00.0000, -1.763731533617689E+08, 2.430218829563892E+08, 4.670454990143116E+07,
2460609.500000000, A.D. 2024-Oct-26 00:00:00.0000, -1.875533490380417E+08, 2.358765755091402E+08, 4.610227433112983E+07,
2460616.500000000, A.D. 2024-Nov-02 00:00:00.0000, -1.984122582205428E+08, 2.283272010668480E+08, 4.542101502436225E+07,
2460623.500000000, A.D. 2024-Nov-09 00:00:00.0000, -2.089346779651195E+08, 2.203905927060814E+08, 4.466271653377582E+07,
2460630.500000000, A.D. 2024-Nov-16 00:00:00.0000, -2.191064625049997E+08, 2.120841029298153E+08, 4.382945529617986E+07,
2460637.500000000, A.D. 2024-Nov-23 00:00:00.0000, -2.289145324787578E+08, 2.034255261415946E+08, 4.292342782293651E+07,
2460644.500000000, A.D. 2024-Nov-30 00:00:00.0000, -2.383468775246536E+08, 1.944330227116695E+08, 4.194693883070859E+07,
2460651.500000000, A.D. 2024-Dec-07 00:00:00.0000, -2.473925522372182E+08, 1.851250455840250E+08, 4.090238941160557E+07,
2460658.500000000, A.D. 2024-Dec-14 00:00:00.0000, -2.560416666308480E+08, 1.755202711046672E+08, 3.979226549984379E+07,
2460665.500000000, A.D. 2024-Dec-21 00:00:00.0000, -2.642853739179773E+08, 1.656375332187786E+08, 3.861912683096656E+07,
2460672.500000000, A.D. 2024-Dec-28 00:00:00.0000, -2.721158541300887E+08, 1.554957583917778E+08, 3.738559604429872E+07,
2460679.500000000, A.D. 2025-Jan-04 00:00:00.0000, -2.795262914801286E+08, 1.451139038726055E+08, 3.609434794599029E+07,
2460686.500000000, A.D. 2025-Jan-11 00:00:00.0000, -2.865108477960240E+08, 1.345109011303041E+08, 3.474809928761436E+07,
2460693.500000000, A.D. 2025-Jan-18 00:00:00.0000, -2.930646334504619E+08, 1.237056036681069E+08, 3.334959911344127E+07,
2460700.500000000, A.D. 2025-Jan-25 00:00:00.0000, -2.991836760278456E+08, 1.127167388086195E+08, 3.190161964891866E+07,
2460707.500000000, A.D. 2025-Feb-01 00:00:00.0000, -3.048648870003723E+08, 1.015628634326287E+08, 3.040694773461255E+07,
2460714.500000000, A.D. 2025-Feb-08 00:00:00.0000, -3.101060267934894E+08, 9.026232365800738E+07, 2.886837681779782E+07,
$$EOE